STARLINK-3723           
1 52138U 22029BC  26068.26297391  .00001721  00000+0  12626-3 0  9995
2 52138  53.2178  71.0337 0001296  88.1691 271.9450 15.08827538220873
SEDNA-2                 
1 63153U 25009DQ  26068.79893845  .00008085  00000+0  49393-3 0  9990
2 63153  97.4615 144.8075 0010309  53.0260 307.1912 15.10492622 63116
